{
    "links": {
        "self": "http://www.neowsapp.com/rest/v1/neo/3579623?api_key=iIulBulltgU6a56xZRHN4H3l9WmuAYTsLGpBGhQ2"
    },
    "id": "3579623",
    "neo_reference_id": "3579623",
    "name": "(2011 SC108)",
    "designation": "2011 SC108",
    "nasa_jpl_url": "http://ssd.jpl.nasa.gov/sbdb.cgi?sstr=3579623",
    "absolute_magnitude_h": 27.9,
    "estimated_diameter": {
        "kilometers": {
            "estimated_diameter_min": 0.0069912523,
            "estimated_diameter_max": 0.0156329154
        },
        "meters": {
            "estimated_diameter_min": 6.9912523225,
            "estimated_diameter_max": 15.6329154409
        },
        "miles": {
            "estimated_diameter_min": 0.0043441614,
            "estimated_diameter_max": 0.0097138403
        },
        "feet": {
            "estimated_diameter_min": 22.9371802696,
            "estimated_diameter_max": 51.289094295
        }
    },
    "is_potentially_hazardous_asteroid": false,
    "close_approach_data": [
        {
            "close_approach_date": "2011-09-27",
            "close_approach_date_full": "2011-Sep-27 22:09",
            "epoch_date_close_approach": 1317161340000,
            "relative_velocity": {
                "kilometers_per_second": "20.6582932619",
                "kilometers_per_hour": "74369.8557427248",
                "miles_per_hour": "46210.5361974725"
            },
            "miss_distance": {
                "astronomical": "0.003189358",
                "lunar": "1.240660262",
                "kilometers": "477121.16346746",
                "miles": "296469.343512548"
            },
            "orbiting_body": "Earth"
        },
        {
            "close_approach_date": "2011-09-28",
            "close_approach_date_full": "2011-Sep-28 02:26",
            "epoch_date_close_approach": 1317176760000,
            "relative_velocity": {
                "kilometers_per_second": "20.9139181371",
                "kilometers_per_hour": "75290.1052937166",
                "miles_per_hour": "46782.3434809763"
            },
            "miss_distance": {
                "astronomical": "0.004001161",
                "lunar": "1.556451629",
                "kilometers": "598565.16312707",
                "miles": "371931.145690766"
            },
            "orbiting_body": "Moon"
        }
    ],
    "orbital_data": {
        "orbit_id": "4",
        "orbit_determination_date": "2017-04-06 08:52:39",
        "first_observation_date": "2011-09-27",
        "last_observation_date": "2011-09-27",
        "data_arc_in_days": null,
        "observations_used": 34,
        "orbit_uncertainty": "8",
        "minimum_orbit_intersection": ".00234375",
        "jupiter_tisserand_invariant": "2.998",
        "epoch_osculation": "2455831.5",
        "eccentricity": ".7434616599582224",
        "semi_major_axis": "2.505240799746942",
        "inclination": "6.882864518290247",
        "ascending_node_longitude": "3.341245313027961",
        "orbital_period": "1448.347055414924",
        "perihelion_distance": ".6426903161720158",
        "perihelion_argument": "82.00384595520683",
        "aphelion_distance": "4.367791283321869",
        "perihelion_time": "2455876.899594958214",
        "mean_anomaly": "348.7155125397242",
        "mean_motion": ".2485592100692101",
        "equinox": "J2000",
        "orbit_class": {
            "orbit_class_type": "APO",
            "orbit_class_description": "Near-Earth asteroid orbits which cross the Earth’s orbit similar to that of 1862 Apollo",
            "orbit_class_range": "a (semi-major axis) > 1.0 AU; q (perihelion) < 1.017 AU"
        }
    },
    "is_sentry_object": false
}